KUIPER-00061            
1 64521U 25134X   25361.78237961  .00030843  00000+0  41958-2 0  9999
2 64521  51.8995 186.0438 0004384  53.9451 306.1916 14.78498786 29484
KUIPER-00062            
1 64522U 25134Y   25362.22839099  .00004211  00000+0  51444-3 0  9992
2 64522  51.8962 188.4893 0007475  61.2208 298.9506 14.85081729 29505
KUIPER-00063            
1 64523U 25134Z   25362.33335648  .00029468  00000+0  38848-2 0  9999
2 64523  51.9001 193.6220 0000587 160.1438 306.6881 14.79854337  4764
KUIPER-00064            
1 64524U 25134AA  25361.97842091  .00004086  00000+0  56507-3 0  9996
2 64524  51.9010 192.6117 0008086 113.1772 247.0043 14.79896206 29429
KUIPER-00065            
1 64525U 25134AB  25362.24858429  .00003918  00000+0  51966-3 0  9997
2 64525  51.9002 196.6247 0011789  46.3578 313.8361 14.81768638 29373
KUIPER-00066            
1 64526U 25134AC  25361.74968701  .00016380  00000+0  73658-3 0  9996
2 64526  51.8911 163.8939 0000015  13.6926 346.4055 15.21239686 29801
KUIPER-00069            
1 64816U 25151A   25362.06494129  .00028488  00000+0  37493-2 0  9999
2 64816  51.9016 237.3382 0004352  60.6233 299.5164 14.79936820 26150
KUIPER-00070            
1 64817U 25151B   25362.13914529  .00006924  00000+0  93527-3 0  9991
2 64817  51.8991 261.9604 0010886  22.0042 338.1386 14.79957580 25826
